{"fetched_at":"2026-03-29T16:36:15Z","count":15609,"tles":[{"name":"STARLINK-35496","line1":"1 66114U 25237A   26087.91112285  .00018968  00000+0  65088-3 0  9990","line2":"2 66114  53.1567 310.3296 0001097  65.1875 294.9239 15.30201755 25554","category":"Starlink"}]}